STARLINK-30423          
1 57843U 23141D   26068.87947193  .00000569  00000+0  31327-4 0  9997
2 57843  53.1597 283.2756 0001149  80.3701 279.7429 15.30190777140359
BANDWAGON-2 OBJECT D    
1 62380U 24247D   26068.52261193  .00011259  00000+0  40119-3 0  9994
2 62380  44.9954 115.6710 0003488 351.1453   8.9368 15.29076102 67732
